OBJECT_NAME,OBJECT_ID,EPOCH,MEAN_MOTION,ECCENTRICITY,INCLINATION,RA_OF_ASC_NODE,ARG_OF_PERICENTER,MEAN_ANOMALY,EPHEMERIS_TYPE,CLASSIFICATION_TYPE,NORAD_CAT_ID,ELEMENT_SET_NO,REV_AT_EPOCH,BSTAR,MEAN_MOTION_DOT,MEAN_MOTION_DDOT
LEMUR-1,2014-033AL,2026-06-14T03:03:38.789856,14.85236346,.0049745,97.7869,315.0007,88.4268,272.2644,0,U,40044,999,64501,.23471E-3,.2003E-4,0
LEMUR-2-GREENBERG,2017-042N,2026-06-14T05:04:56.665344,15.31247013,.0008807,97.3809,345.8505,24.5489,335.6170,0,U,42837,999,48793,.53319E-3,.1605E-3,0
LEMUR-2-ANDIS,2017-042P,2026-06-13T11:10:14.413440,15.34707591,.00085632,97.3668,345.2793,25.4748,334.6916,0,U,42838,999,48788,.61456252E-3,.20649E-3,0
LEMUR-2-MONSON,2017-042Q,2026-06-13T18:08:09.375648,15.27928481,.00065457,97.4070,345.3743,18.6729,341.4750,0,U,42839,999,48764,.52673633E-3,.14304E-3,0
LEMUR-2-FURIAUS,2017-042R,2026-06-14T00:10:28.826976,15.30158223,.0008324,97.3761,343.6098,78.7756,281.4420,0,U,42840,999,48772,.6045E-3,.17604E-3,0
LEMUR-2-PETERG,2017-042S,2026-06-13T23:15:38.662272,15.33774982,.0003469,97.3978,349.9947,10.0526,350.0785,0,U,42841,999,48794,.6328E-3,.20625E-3,0
LEMUR-2-DEMBITZ,2017-042T,2026-06-14T03:47:34.592064,15.30211290,.0007032,97.3816,346.7809,39.1026,321.0722,0,U,42842,999,48788,.52793E-3,.15381E-3,0
LEMUR-2-ZACHARY,2017-042W,2026-06-14T02:11:46.075200,15.50020649,.0003123,97.3594,356.6634,45.1901,314.9604,0,U,42845,999,48872,.81199E-3,.45647E-3,0
LEMUR-2-AMANDA-SVANTE,2021-034B,2026-06-14T03:52:44.482944,15.34138619,.0001927,97.5769,243.3672,217.8791,142.2316,0,U,48269,999,28059,.10438E-2,.34523E-3,0
LEMUR-2-SPECIAL-K,2021-034F,2026-06-14T04:57:14.673312,15.63693304,.0003881,97.5655,251.8492,229.6783,130.4137,0,U,48273,999,28122,.15892E-2,.150405E-2,0
LEMUR-2-EMBRIONOVIS,2023-084AQ,2026-06-14T03:25:44.342112,15.37482062,.0007911,97.6281,309.2254,332.2744,27.8077,0,U,56970,999,16721,.37833E-3,.13844E-3,0
LEMUR-2-DEVERILL-M-T,2023-100F,2026-06-13T20:31:49.085472,15.39599682,.00066537,99.4475,202.6512,61.0244,299.1662,0,U,57391,999,16073,.67708866E-3,.26632E-3,0
LEMUR-2-BASS,2023-174D,2026-06-14T03:53:47.757120,15.43004510,.0007488,97.3852,249.8321,172.0284,188.1084,0,U,58259,999,14489,.40584E-3,.17836E-3,0
LEMUR-2-JK0903EM1407,2023-174CJ,2026-06-14T04:15:05.238144,15.51541698,.0005818,97.3927,255.5625,128.2352,231.9424,0,U,58336,999,14526,.45581E-3,.26948E-3,0
LEMUR-2-MJR092620,2023-174CN,2026-06-14T04:17:57.620832,15.44778762,.0007043,97.3983,255.1526,126.3899,233.8000,0,U,58340,999,14518,.41812E-3,.19515E-3,0
LEMUR-2-NIMBUS2000,2024-022A,2026-06-14T02:09:14.673888,15.39908639,.0010229,97.4109,15.0530,125.3633,234.8570,0,U,58899,999,13179,.45073E-3,.17895E-3,0
LEMUR-2-VALHALLA,2024-022B,2026-06-14T03:36:27.679104,15.39591610,.001078,97.4107,15.1066,121.5542,238.6758,0,U,58900,999,13180,.42035E-3,.16511E-3,0
LEMUR-2-OBA-NI-JESU,2024-022D,2026-06-13T06:27:58.466016,16.36778297,.0009182,97.3603,29.4721,248.5343,111.4976,0,U,58902,999,13270,.90464E-3,.7840474E-1,.25257E-5
LEMUR-2-CAEL,2024-022E,2026-06-14T02:20:46.972032,15.40885893,.000927,97.4090,15.9838,106.5723,253.6542,0,U,58903,999,13186,.44052E-3,.18056E-3,0
LEMUR-2-JOHNNYTRUONG,2024-043BA,2026-06-13T22:38:41.332416,15.60243743,.0004703,97.5365,316.4464,186.4415,173.6782,0,U,59146,999,12753,.47987E-3,.3915E-3,0
LEMUR-2-TOMATOKECHUP,2024-149D,2026-06-14T04:13:05.397024,15.35976496,.0001147,97.3808,247.2145,181.7655,178.3585,0,U,60471,999,10170,.34861E-3,.12135E-3,0
LEMUR-2-STELLA,2024-149BT,2026-06-14T04:04:01.991136,15.11753702,.0001643,97.6746,247.6108,94.5801,265.5617,0,U,60533,999,10004,.71531E-3,.12144E-3,0
LEMUR-2-MARHISYAM,2024-149BW,2026-06-14T05:09:27.500832,15.11210346,.0003432,97.6890,248.1025,121.4376,238.7189,0,U,60536,999,10003,.66094E-3,.11047E-3,0
LEMUR-2-AHMED-ASRAR,2024-149DN,2026-06-14T04:27:28.220256,15.12653994,.0002009,97.7012,250.1542,47.8289,312.3111,0,U,60576,999,10011,.74724E-3,.13012E-3,0
LEMUR-2-LLOYD,2024-149DP,2026-06-14T04:35:30.009120,15.09186796,.00047,97.6751,246.3186,147.8900,212.2616,0,U,60577,999,9994,.65452E-3,.10346E-3,0
LEMUR-2-SQUIRRELCOMM,2024-149DQ,2026-06-14T04:49:58.287648,15.07122230,.0006735,97.6717,246.1219,70.6724,289.5231,0,U,60578,999,9995,.36868E-3,.5479E-4,0
LEMUR-2-SIERRINI,2024-149DR,2026-06-14T04:07:04.892160,15.10892403,.0005598,97.6852,247.7498,174.4250,185.7043,0,U,60579,999,10000,.72698E-3,.12055E-3,0
LEMUR-2-WILSON,2025-009CP,2026-06-14T05:12:52.070112,14.95152538,.0004279,97.7024,243.7337,64.1423,296.0239,0,U,62694,999,7691,.21662E-3,.2321E-4,0
LEMUR-2-STAR-FOX,2025-009CR,2026-06-14T03:53:57.345792,15.02464841,.000356,97.6960,246.7924,118.7505,241.4077,0,U,62696,999,7710,.61451E-3,.8097E-4,0
LEMUR-2-ARIANNA,2025-009CU,2026-06-14T03:51:30.568608,15.02447016,.0003866,97.6902,246.5678,124.9130,235.2459,0,U,62699,999,7710,.6274E-3,.8265E-4,0
