LEMUR-1                 
1 40044U 14033AL  26165.12753229  .00002003  00000+0  23471-3 0  9998
2 40044  97.7869 315.0007 0049745  88.4268 272.2644 14.85236346645016
LEMUR-2-GREENBERG       
1 42837U 17042N   26165.21176696  .00016050  00000+0  53319-3 0  9991
2 42837  97.3809 345.8505 0008807  24.5489 335.6170 15.31247013487930
LEMUR-2-ANDIS           
1 42838U 17042P   26164.46544460  .00020649  00000+0  61456-3 0  9996
2 42838  97.3668 345.2793 0008563  25.4748 334.6916 15.34707591487880
LEMUR-2-MONSON          
1 42839U 17042Q   26164.75566407  .00014304  00000+0  52674-3 0  9997
2 42839  97.4070 345.3743 0006545  18.6729 341.4750 15.27928481487647
LEMUR-2-FURIAUS         
1 42840U 17042R   26165.00727809  .00017604  00000+0  60450-3 0  9990
2 42840  97.3761 343.6098 0008324  78.7756 281.4420 15.30158223487722
LEMUR-2-PETERG          
1 42841U 17042S   26164.96919748  .00020625  00000+0  63280-3 0  9991
2 42841  97.3978 349.9947 0003469  10.0526 350.0785 15.33774982487944
LEMUR-2-DEMBITZ         
1 42842U 17042T   26165.15803926  .00015381  00000+0  52793-3 0  9994
2 42842  97.3816 346.7809 0007032  39.1026 321.0722 15.30211290487882
LEMUR-2-ZACHARY         
1 42845U 17042W   26165.09150550  .00045647  00000+0  81199-3 0  9998
2 42845  97.3594 356.6634 0003123  45.1901 314.9604 15.50020649488722
LEMUR-2-AMANDA-SVANTE   
1 48269U 21034B   26165.16162596  .00034523  00000+0  10438-2 0  9999
2 48269  97.5769 243.3672 0001927 217.8791 142.2316 15.34138619280599
LEMUR-2-SPECIAL-K       
1 48273U 21034F   26165.20641983  .00150405  00000+0  15892-2 0  9998
2 48273  97.5655 251.8492 0003881 229.6783 130.4137 15.63693304281225
LEMUR-2-EMBRIONOVIS     
1 56970U 23084AQ  26165.14287433  .00013844  00000+0  37833-3 0  9992
2 56970  97.6281 309.2254 0007911 332.2744  27.8077 15.37482062167216
LEMUR-2-DEVERILL-M-T    
1 57391U 23100F   26164.85542923  .00026632  00000+0  67709-3 0  9998
2 57391  99.4475 202.6512 0006653  61.0244 299.1662 15.39599682160739
LEMUR-2-BASS            
1 58259U 23174D   26165.16235830  .00017836  00000+0  40584-3 0  9992
2 58259  97.3852 249.8321 0007488 172.0284 188.1084 15.43004510144894
LEMUR-2-JK0903EM1407    
1 58336U 23174CJ  26165.17714396  .00026948  00000+0  45581-3 0  9994
2 58336  97.3927 255.5625 0005818 128.2352 231.9424 15.51541698145267
LEMUR-2-MJR092620       
1 58340U 23174CN  26165.17913913  .00019515  00000+0  41812-3 0  9990
2 58340  97.3983 255.1526 0007043 126.3899 233.8000 15.44778762145185
LEMUR-2-NIMBUS2000      
1 58899U 24022A   26165.08975317  .00017895  00000+0  45073-3 0  9990
2 58899  97.4109  15.0530 0010229 125.3633 234.8570 15.39908639131795
LEMUR-2-VALHALLA        
1 58900U 24022B   26165.15032036  .00016511  00000+0  42035-3 0  9992
2 58900  97.4107  15.1066 0010780 121.5542 238.6758 15.39591610131809
LEMUR-2-OBA-NI-JESU     
1 58902U 24022D   26164.26942669  .07840474  25257-5  90464-3 0  9993
2 58902  97.3603  29.4721 0009182 248.5343 111.4976 16.36778297132706
LEMUR-2-CAEL            
1 58903U 24022E   26165.09776588  .00018056  00000+0  44052-3 0  9992
2 58903  97.4090  15.9838 0009270 106.5723 253.6542 15.40885893131869
LEMUR-2-JOHNNYTRUONG    
1 59146U 24043BA  26164.94353394  .00039150  00000+0  47987-3 0  9992
2 59146  97.5365 316.4464 0004703 186.4415 173.6782 15.60243743127530
LEMUR-2-TOMATOKECHUP    
1 60471U 24149D   26165.17575691  .00012135  00000+0  34861-3 0  9995
2 60471  97.3808 247.2145 0001147 181.7655 178.3585 15.35976496101707
LEMUR-2-STELLA          
1 60533U 24149BT  26165.16946749  .00012144  00000+0  71531-3 0  9994
2 60533  97.6746 247.6108 0001643  94.5801 265.5617 15.11753702100046
LEMUR-2-MARHISYAM       
1 60536U 24149BW  26165.21490163  .00011047  00000+0  66094-3 0  9996
2 60536  97.6890 248.1025 0003432 121.4376 238.7189 15.11210346100035
LEMUR-2-AHMED-ASRAR     
1 60576U 24149DN  26165.18574329  .00013012  00000+0  74724-3 0  9996
2 60576  97.7012 250.1542 0002009  47.8289 312.3111 15.12653994100110
LEMUR-2-LLOYD           
1 60577U 24149DP  26165.19131955  .00010346  00000+0  65452-3 0  9997
2 60577  97.6751 246.3186 0004700 147.8900 212.2616 15.09186796 99945
LEMUR-2-SQUIRRELCOMM    
1 60578U 24149DQ  26165.20136907  .00005479  00000+0  36868-3 0  9992
2 60578  97.6717 246.1219 0006735  70.6724 289.5231 15.07122230 99952
LEMUR-2-SIERRINI        
1 60579U 24149DR  26165.17158440  .00012055  00000+0  72698-3 0  9994
2 60579  97.6852 247.7498 0005598 174.4250 185.7043 15.10892403100009
LEMUR-2-WILSON          
1 62694U 25009CP  26165.21726933  .00002321  00000+0  21662-3 0  9993
2 62694  97.7024 243.7337 0004279  64.1423 296.0239 14.95152538 76916
LEMUR-2-STAR-FOX        
1 62696U 25009CR  26165.16246928  .00008097  00000+0  61451-3 0  9996
2 62696  97.6960 246.7924 0003560 118.7505 241.4077 15.02464841 77108
LEMUR-2-ARIANNA         
1 62699U 25009CU  26165.16077047  .00008265  00000+0  62740-3 0  9992
2 62699  97.6902 246.5678 0003866 124.9130 235.2459 15.02447016 77103
